[Satellite]
VERSION=1.1
NAME=AAUSAT2
NICKNAME=AAUSAT2
TLE1=1 32788U 08021F   22342.42070430  .00007353  00000+0  60768-3 0  9999
TLE2=2 32788  97.5496 321.9212 0008996 252.0226 108.0017 14.99200210794488
STATUS=0
